1 11158U 78118A   20006.07310258 -.00000078  00000-0  00000-0 0  9991
2 11158  12.5621 240.4231 3589011 233.0835  88.4605  1.00306936 99335
1 11440U 79062A   20007.04429916 -.00000047  00000-0  00000+0 0  9999
2 11440  11.2323 312.4895 0005549 324.5857 278.5396  1.00236983114416
1 11648U 79105A   20005.98243619  .00000160  00000-0  00000-0 0  9998
2 11648  11.3702 313.7709 0009323 194.6202 350.1415  1.00282579 98872
1 11841U 80049A   20006.50300003 -.00000043  00000-0  00000-0 0  9993
2 11841  12.4488 318.7314 0005496 344.2191 191.8925  0.98629567210302
1 13092U 82020A   20006.43792191  .00000027  00000-0  00000+0 0  9999
2 13092  13.3224 323.6879 0029913 189.1668 352.2037  0.98530380 98389
1 13624U 82103A   20007.30928942 -.00000270  00000-0  00000+0 0  9995
2 13624  12.2084 323.5841 0002403 350.0801 195.9942  1.00358403 97343
1 14160U 83066A   20007.34470729 -.00000086  00000-0  00000+0 0  9994
2 14160  13.6532 332.0093 0013627 308.0146  60.2276  0.98347362131656
1 14532U 83118A   20007.37558887 -.00000009  00000-0  00000+0 0  9995
2 14532  13.7716 333.7009 0025352 119.1984  52.9015  0.98268400 97417
1 14940U 84041A   20006.81079847 -.00000272  00000-0  00000-0 0  9999
2 14940  12.9870 332.0573 0002468 261.7716 259.2152  1.00291427 98346
1 15144U 84078A   20006.59001358  .00000096  00000-0  00000-0 0  9996
2 15144  13.0528 333.0486 0004719 340.0728 224.0402  1.00356755130974
1 15484U 85007A   20006.37370468 -.00000251  00000-0  00000-0 0  9997
2 15484  13.1688 334.9090 0003038  13.6442 174.1423  1.00375463129028
1 16769U 86044A   20007.41414723 -.00000280  00000-0  00000+0 0  9996
2 16769  13.6087 339.9636 0004590 318.5932  54.9003  1.00217302123681
1 17083U 86090A   20006.60881743 -.00000115  00000-0  00000-0 0  9995
2 17083  15.2754 346.5068 0019343 319.2228  38.0857  0.96726339 95879
1 17969U 87040A   20006.84198854 -.00000082  00000-0  00000-0 0  9997
2 17969  14.5250 338.4450 0025831 149.0783  29.6091  0.97658167 96875
1 19017U 88028A   20006.10652324 -.00000127  00000-0  00000+0 0  9995
2 19017  15.4304 349.5997 0031264 130.5604  42.8935  0.97829347 96452
1 19397U 88071A   20006.57828479  .00000090  00000-0  00000-0 0  9990
2 19397  14.3066 348.3826 0016817  16.6267 175.0402  0.99970181114702
1 19765U 89004A   20007.11021666 -.00000110  00000-0  00000+0 0  9993
2 19765  14.7306 351.4967 0018406  97.6077  69.7324  0.99067788112257
1 20107U 89052A   20006.81189209 -.00000263  00000-0  00000-0 0  9992
2 20107  14.7175 352.7992 0038535 297.2897  65.2680  0.99402603111027
1 20263U 89081A   20007.11492741  .00000136  00000-0  00000+0 0  9996
2 20263  14.4691 352.1255 0005829 297.3318 255.6574  1.00300251110895
1 20659U 90054A   20006.85019281 -.00000140  00000-0  00000-0 0  9998
2 20659  14.7884 355.0100 0001805 157.1984 338.0725  1.00321939108105
1 20923U 90094A   20006.81736049 -.00000274  00000-0  00000-0 0  9998
2 20923  14.7632 355.7929 0003191 265.0909  98.2347  1.00213226106856
1 20953U 90102A   20006.54243076  .00000122  00000-0  00000+0 0  9994
2 20953  14.7084 356.1163 0007229 332.2051  18.1701  1.00172748106809
1 21533U 91046A   20007.11187414 -.00000083  00000-0  00000+0 0  9991
2 21533  15.3058   0.0288 0009041 305.1417 222.6254  0.98909266 97458
1 21759U 91074A   20007.44904167 -.00000033  00000-0  00000+0 0  9995
2 21759  15.3809   1.7800 0016203 217.0651 321.9706  0.98441919101872
1 21922U 92017A   20007.11484017  .00000115  00000-0  00000+0 0  9996
2 21922  14.9409   1.3268 0027852  45.1523 137.6232  0.99848664101436
1 22041U 92043A   20006.64563105  .00000002  00000-0  00000-0 0  9997
2 22041  15.0288   3.1499 0029873 219.9266 318.6581  0.99243934100113
1 22245U 92082A   20006.67799566  .00000011  00000-0  00000+0 0  9990
2 22245  14.9546   3.0368 0016972 333.3562  19.2061  1.00203959103569
1 22880U 93069A   20006.64763748  .00000091  00000-0  00000+0 0  9999
2 22880  14.9273   6.6482 0029209 103.1831  82.7814  0.99652012 95685
1 22907U 93072A   20006.69389646 -.00000329  00000-0  00000-0 0  9995
2 22907  14.8587   6.2318 0015477 315.9233 140.9751  1.00125579 95613
1 23108U 94030A   20006.74551638 -.00000135  00000-0  00000+0 0  9996
2 23108  14.8299   7.1886 0003976 302.3584  48.9176  1.00283979 93892
1 23775U 96005A   20007.41999205 -.00000355  00000-0  00000+0 0  9995
2 23775  14.4673  13.0514 0016046 188.9361 183.1874  0.99894710 87541
1 23880U 96034A   20007.28582292 -.00000014  00000-0  00000+0 0  9995
2 23880  14.3925  13.6369 0013195 318.9215  50.9961  1.00215843 86472
1 26372U 00029A   20007.46401524 -.00000093  00000-0  00000+0 0  9998
2 26372  12.6208  24.0026 0003844 330.7607 175.2481  1.00156820 71829
